# From MPC106342
C/1995 O1 (Hale-Bopp),e,88.9909,283.3593,130.5878,179.7955,0.0004088,0.99493751,0.0000,03/29.6969/1997,2000,g -2.0,4.0
# From MPEC 2020-N31
C/2004 Q1 (Tucker),e,56.2422,22.1048,32.8808,163.5236,0.0004713,0.98748282,0.0000,11/28.0009/2004,2000,g  9.5,4.0
# From MPEC 2020-N31
C/2007 U1 (LINEAR),e,157.7689,50.3760,1.0813,6600,0.0000018,0.99949869,0.0000,08/04.7554/2008,2000,g  9.0,4.0
# From MPEC 2020-N31
C/2007 VO53 (Spacewatch),e,86.9256,59.7217,75.1574,6431,0.0000019,0.99924307,0.0000,04/18.9933/2010,2000,g  7.0,4.0
# From NK 1615
P/1996 R2 (Lagerkvist),e,2.6003,40.0384,333.2986,3.774866,0.1343853,0.31394766,72.4935,08/04.0/2020,2000,g 11.5,4.0
# From MPC 30063
P/1997 B1 (Kobayashi),e,12.3398,328.8873,183.3751,8.563943,0.0393272,0.76005998,336.3316,08/04.0/2020,2000,g 15.0,2.0
# From MPC 75703
P/1998 VS24 (LINEAR),e,5.0248,159.0303,244.7036,4.530172,0.1022191,0.24184050,94.9638,08/04.0/2020,2000,g 13.0,2.0
# From NK 731
P/1999 RO28 (LONEOS),e,7.5664,137.8828,231.2721,3.426717,0.1553770,0.67198235,62.9180,08/04.0/2020,2000,g 20.0,2.0
# From MPC 75704
P/1999 XN120 (Catalina),e,5.0297,285.2961,161.9281,4.179000,0.1153707,0.21043265,132.6689,08/04.0/2020,2000,g 13.5,2.0
# From NK 744
P/2000 R2 (LINEAR),e,11.6839,160.2980,176.5011,3.465632,0.1527673,0.53153747,63.1883,08/04.0/2020,2000,g 18.0,4.0
# From MPC 43019
P/2001 H5 (NEAT),e,8.3677,328.6862,224.8761,6.098328,0.0654467,0.59882653,114.5362,08/04.0/2020,2000,g 12.0,4.0
# From MPC 75704
P/2001 Q6 (NEAT),e,56.8982,22.1147,42.9542,7.949291,0.0439756,0.82273052,302.6435,08/04.0/2020,2000,g 13.5,4.0
# From MPC 47727
P/2002 EJ57 (LINEAR),e,4.9759,330.3371,167.3415,6.473811,0.0598362,0.59304376,46.5106,08/04.0/2020,2000,g 12.5,4.0
# From MPC109588
P/2002 T5 (LINEAR),e,30.8530,123.0879,326.7826,7.003538,0.0531775,0.43776389,333.4764,08/04.0/2020,2000,g  8.0,4.0
# From MPC109588
P/2002 T6 (NEAT-LINEAR),e,10.8332,206.5582,219.5268,7.665849,0.0464370,0.55976585,292.6515,08/04.0/2020,2000,g 10.5,4.0
# From MPC 75007
C/2002 VQ94 (LINEAR),e,70.5442,34.9905,100.1867,186.4138,0.0003872,0.96333021,2.0533,08/04.0/2020,2000,g  9.5,2.0
# From MPC 50354
P/2003 F2 (NEAT),e,11.6052,359.0859,191.8690,6.486402,0.0596621,0.54205721,15.8620,08/04.0/2020,2000,g 16.5,2.0
# From MPC 50139
P/2003 QX29 (NEAT),e,11.3899,264.5979,37.3590,8.035099,0.0432730,0.47293482,280.9517,08/04.0/2020,2000,g  8.5,4.0
# From MPC105235
P/2003 T12 (SOHO),e,11.0162,174.5740,219.7717,2.586202,0.2369793,0.76961988,21.1250,08/04.0/2020,2000,g 17.0,4.0
# From MPC 82312
P/2004 A1 (LONEOS),e,10.5516,124.8476,21.4787,7.953361,0.0439418,0.30943737,256.1476,08/04.0/2020,2000,g  6.5,4.0
# From MPC 54558
P/2004 DO29 (Spacewatch-LINEAR),e,14.5315,147.3842,40.7492,7.281314,0.0501637,0.44145217,289.7385,08/04.0/2020,2000,g 13.5,2.0
# From MPC 54823
P/2004 FY140 (LINEAR),e,2.1348,326.7622,242.4822,4.900915,0.0908423,0.16881236,166.8018,08/04.0/2020,2000,g 12.5,2.0
# From MPC 53304
P/2004 R3 (LINEAR-NEAT),e,12.8204,305.4894,39.1915,4.784656,0.0941733,0.26096175,320.2284,08/04.0/2020,2000,g 14.5,4.0
# From MPC 55521
P/2004 V3 (Siding Spring),e,50.4280,356.1122,322.2748,7.145635,0.0515992,0.44629819,297.8317,08/04.0/2020,2000,g 11.5,4.0
# From MPC 75705
P/2004 V5 (LINEAR-Hill),e,19.3468,47.7608,87.8283,7.974014,0.0437712,0.44354226,247.4114,08/04.0/2020,2000,g  8.0,4.0
# From MPC 54164
P/2005 E1 (Tubbiolo),e,4.2637,335.5762,194.1587,7.035844,0.0528117,0.37524140,299.1530,08/04.0/2020,2000,g 10.0,4.0
# From MPC 54823
P/2005 GF8 (LONEOS),e,1.1937,314.8355,285.2864,5.872823,0.0692522,0.51841472,21.3910,08/04.0/2020,2000,g 11.5,4.0
# From MPC 79019
P/2005 J1 (McNaught),e,31.7685,268.7991,338.9525,3.569466,0.1461501,0.56999979,96.6368,08/04.0/2020,2000,g 16.5,4.0
# From MPC 74246
P/2005 L1 (McNaught),e,7.7385,138.2477,149.6724,3.975491,0.1243420,0.20933883,303.3610,08/04.0/2020,2000,g  9.5,4.0
# From MPC 75706
P/2005 S2 (Skiff),e,3.1356,161.1911,229.1686,8.018507,0.0434074,0.19661643,225.8503,08/04.0/2020,2000,g  7.5,4.0
# From MPC 75706
P/2005 SB216 (LONEOS),e,24.0665,1.2633,83.4017,7.125648,0.0518164,0.46309909,256.5723,08/04.0/2020,2000,g 12.0,2.0
# From MPC 55717
P/2005 T2 (Christensen),e,8.2927,260.1572,58.8058,3.846317,0.1306582,0.41648708,15.3706,08/04.0/2020,2000,g 14.5,4.0
# From MPC 73461
P/2005 T3 (Read),e,6.2256,27.7618,7.1507,7.574676,0.0472779,0.17370210,255.3568,08/04.0/2020,2000,g  9.0,4.0
# From MPC 73461
P/2005 T4 (SWAN),e,160.1648,25.6257,41.5298,9.360562,0.0344153,0.93001288,186.6756,08/04.0/2020,2000,g 15.0,4.0
# From MPC 75706
P/2005 T5 (Broughton),e,21.3484,57.0110,304.5041,7.292632,0.0500470,0.55180665,271.1173,08/04.0/2020,2000,g 11.0,4.0
# From MPC 56954
P/2005 W3 (Kowalski),e,16.4145,210.1050,200.6213,6.335645,0.0618042,0.54362076,334.5012,08/04.0/2020,2000,g 12.0,4.0
# From MPC 75706
P/2005 XA54 (LONEOS-Hill),e,17.1186,143.6717,15.1437,6.051653,0.0662054,0.71016320,348.1960,08/04.0/2020,2000,g 14.0,4.0
# From MPC 75706
P/2005 Y2 (McNaught),e,19.1054,94.5175,194.1125,6.372580,0.0612676,0.46948437,355.2085,08/04.0/2020,2000,g  9.0,4.0
# From MPC 56954
P/2006 F4 (Spacewatch),e,12.3917,183.9286,31.2328,3.529083,0.1486659,0.33909991,54.5836,08/04.0/2020,2000,g 15.0,4.0
# From MPC 58118
P/2006 H1 (McNaught),e,12.8050,359.8915,309.2845,5.771005,0.0710930,0.58018191,17.0961,08/04.0/2020,2000,g 12.5,4.0
# From MPC 75707
P/2006 HR30 (Siding Spring),e,31.8305,309.9007,117.2940,7.811289,0.0451461,0.84186978,224.8836,08/04.0/2020,2000,g 11.0,4.0
# From MPC 75707
P/2006 S4 (Christensen),e,39.5392,36.1003,305.1557,6.308811,0.0621989,0.50778427,327.1085,08/04.0/2020,2000,g 11.0,4.0
# From MPC 75707
P/2007 A2 (Christensen),e,26.4875,300.9056,186.7792,6.322669,0.0619945,0.55747058,307.4575,08/04.0/2020,2000,g 13.5,4.0
# From MPC 59319
P/2007 B1 (Christensen),e,12.3768,77.6671,46.7615,5.818324,0.0702275,0.58084842,347.7333,08/04.0/2020,2000,g 13.5,4.0
# From MPC 75707
P/2007 C2 (Catalina),e,8.6725,275.6862,179.7945,6.997320,0.0532484,0.46933987,250.1293,08/04.0/2020,2000,g 10.0,4.0
# From MPC 84315
C/2007 D1 (LINEAR),e,41.5011,171.1587,340.1499,1643,0.0000148,0.99462256,0.0000,06/10.5191/2007,2000,g  3.5,4.0
# From MPC 82314
P/2007 K2 (Gibbs),e,7.6391,188.6487,347.4862,7.261026,0.0503741,0.68353208,242.1072,08/04.0/2020,2000,g 14.0,4.0
# From MPC 60925
P/2007 Q2 (Gilmore),e,10.2009,172.1689,162.7791,5.658410,0.0732255,0.67047809,351.5796,08/04.0/2020,2000,g 16.0,4.0
# From MPC 75708
P/2007 R2 (Gibbs),e,1.2166,11.4295,352.3766,3.573240,0.1459187,0.54227874,353.6966,08/04.0/2020,2000,g 17.0,4.0
# From MPC 75708
P/2007 R4 (Garradd),e,20.2314,87.2207,282.7133,5.920767,0.0684128,0.66985969,326.3443,08/04.0/2020,2000,g 14.5,4.0
# From MPC 73462
P/2007 S1 (Zhao),e,5.9628,141.3889,245.8006,3.811297,0.1324631,0.33971940,254.5871,08/04.0/2020,2000,g 13.0,4.0
# From MPC 61994
P/2007 T2 (Kowalski),e,9.7425,3.3767,359.6344,3.047338,0.1852777,0.78512586,137.5459,08/04.0/2020,2000,g 18.5,4.0
# From MPC 75708
P/2007 VQ11 (Catalina),e,12.3200,163.8167,277.6787,5.425877,0.0779829,0.50324403,356.4876,08/04.0/2020,2000,g 12.0,4.0
# From MPC 75708
P/2008 CL94 (Lemmon),e,8.3481,33.3380,80.6069,6.159449,0.0644750,0.12011860,333.2459,08/04.0/2020,2000,g  8.0,4.0
# From MPC 75709
P/2008 L2 (Hill),e,25.8527,218.0042,141.2028,6.028814,0.0665819,0.61289549,292.7268,08/04.0/2020,2000,g 12.5,4.0
# From MPC 64114
P/2008 O3 (Boattini),e,32.2353,47.6061,341.0797,8.224468,0.0417871,0.69480256,186.2560,08/04.0/2020,2000,g 13.0,4.0
# From MPC 75709
P/2008 QP20 (LINEAR-Hill),e,7.5188,322.1020,75.7053,3.549580,0.1473800,0.49269869,283.9409,08/04.0/2020,2000,g 15.5,4.0
# From MPC 66204
P/2008 WZ96 (LINEAR),e,7.1182,56.5617,341.8019,3.491964,0.1510426,0.47097325,301.4722,08/04.0/2020,2000,g 13.5,4.0
# From MPC 75710
P/2008 Y3 (McNaught),e,38.7604,262.7834,238.3063,8.045411,0.0431899,0.44559704,182.9920,08/04.0/2020,2000,g  8.5,4.0
# From MPC 75710
P/2009 B1 (Boattini),e,22.2185,297.0927,128.9105,6.735081,0.0563884,0.63452901,238.1944,08/04.0/2020,2000,g 13.0,4.0
# From MPC 66466
C/2009 G1 (STEREO),e,108.7541,120.4291,175.3666,419.4502,0.0001147,0.99729817,0.0000,04/14.7460/2009,2000,g  9.0,4.0
# From MPEC 2020-N31
P/2009 O3 (Hill),e,16.2578,183.7258,154.3685,7.771489,0.0454933,0.68737424,186.3104,08/04.0/2020,2000,g 12.5,4.0
# From MPEC 2020-N31
C/2010 U3 (Boattini),e,55.5176,43.0409,88.0757,2555,0.0000076,0.99669474,0.0000,02/26.0741/2019,2000,g  1.0,4.0
# From MPEC 2020-N31
C/2011 KP36 (Spacewatch),e,18.9834,173.3093,180.6289,38.80941,0.0040766,0.87428493,6.2355,08/04.0/2020,2000,g  4.5,4.0
# From MPC 98557
P/2009 Q1 (Hill),e,14.5052,173.9577,157.1186,5.519939,0.0759981,0.49467130,309.9779,08/04.0/2020,2000,g 11.5,4.0
# From MPC112389
P/2009 Q4 (Boattini),e,11.0153,127.4653,320.2298,3.127851,0.1781702,0.58254671,334.1695,08/04.0/2020,2000,g 15.5,4.0
# From MPC 68902
P/2009 Q5 (McNaught),e,40.9665,160.2554,209.0165,7.439360,0.0485737,0.60841708,193.8033,08/04.0/2020,2000,g 10.0,4.0
# From MPC112389
P/2009 T2 (La Sagra),e,27.5352,215.7733,216.4446,7.725107,0.0459037,0.76490968,177.7531,08/04.0/2020,2000,g 14.0,4.0
# From MPC 75711
P/2009 U4 (McNaught),e,10.0817,55.3600,259.8515,5.081181,0.0860512,0.67597340,344.4132,08/04.0/2020,2000,g 14.0,4.0
# From MPC105235
P/2009 WX51 (Catalina),e,9.5954,31.6888,118.0643,3.079002,0.1824270,0.74018070,340.9615,08/04.0/2020,2000,g 19.0,2.0
# From MPC 74247
P/2009 Y2 (Kowalski),e,29.9278,262.0237,172.1889,6.548449,0.0588161,0.63578036,223.8343,08/04.0/2020,2000,g 13.0,4.0
# From MPC 75711
P/2010 A3 (Hill),e,14.8814,64.1968,41.8435,6.074791,0.0658275,0.73306036,249.1814,08/04.0/2020,2000,g 14.0,4.0
# From MPC 72851
P/2010 A5 (LINEAR),e,5.7983,277.6647,307.0892,5.083985,0.0859801,0.66509829,322.2154,08/04.0/2020,2000,g 13.0,4.0
# From MPC105235
P/2010 B2 (WISE),e,8.9305,0.8497,155.9227,3.109926,0.1797128,0.47990170,337.9716,08/04.0/2020,2000,g 17.0,4.0
# From MPC 75008
P/2010 C1 (Scotti),e,9.1282,141.8862,3.8376,7.102361,0.0520715,0.25856791,203.6728,08/04.0/2020,2000,g  9.5,4.0
# From MPC 75008
